C/2018 A3 (ATLAS),e,139.5981,194.3470,86.4898,344.3831,0.0001542,0.99044108,0.0000,01/08.7537/2019,2000,g  8.5,4.0
# From MPC109147
P/2018 A5 (PANSTARRS),e,23.6246,87.7837,359.5443,5.624453,0.0738897,0.52449684,200.6907,03/07.0/2025,2000,g 15.0,4.0
# From MPEC 2024-JU4
C/2018 A6 (Gibbs),e,77.1494,340.4485,264.2787,14.99905,0.0169671,0.79881495,35.0669,03/07.0/2025,2000,g  9.0,4.0
# From MPC114601
P/2018 C1 (Lemmon-Read),e,5.1025,270.2158,235.7806,5.649659,0.0733957,0.53261854,188.4718,03/07.0/2025,2000,g 13.5,4.0
# From MPEC 2022-M88
C/2018 DO4 (Lemmon),e,160.4471,251.3899,176.4054,25.50706,0.0076509,0.90508072,15.5238,03/07.0/2025,2000,g 11.0,4.0
# From MPEC 2021-R75
C/2018 F1 (Grauer),e,46.1613,177.3144,71.4460,218.1979,0.0003058,0.98628488,0.0000,12/10.1537/2018,2000,g 11.5,4.0
# From MPEC 2023-A50
C/2018 F4 (PANSTARRS),e,78.1251,26.5325,263.1996,1824,0.0000127,0.99810887,0.0000,12/01.0246/2019,2000,g 11.0,6.0
# From MPEC 2021-Y10
C/2018 F4-A,e,78.1253,26.5326,263.1964,1774,0.0000132,0.99805592,0.0000,12/01.0127/2019,2000,g 11.0,6.0
# From MPEC 2023-D41
C/2018 F4-B,e,78.1262,26.5321,263.1822,1859,0.0000123,0.99814468,0.0000,11/30.9495/2019,2000,g 11.0,6.0
# From MPC114602
P/2018 H2 (PANSTARRS),e,7.4187,67.9820,119.2487,4.406405,0.1065559,0.53995924,281.0056,03/07.0/2025,2000,g 16.6,2.0
# From MPEC 2021-R75
C/2018 KJ3 (Lemmon),e,136.6207,91.6952,217.5454,717.5038,0.0000513,0.99495782,0.0000,09/08.9944/2019,2000,g 12.2,2.0
# From MPC114602
P/2018 L1 (PANSTARRS),e,10.5785,268.5843,17.9564,3.657659,0.1408962,0.48127567,325.6425,03/07.0/2025,2000,g 15.0,4.0
# From MPEC 2021-P47
C/2018 L2 (ATLAS),e,67.2065,242.9856,56.3488,237.6044,0.0002691,0.99275523,0.0000,11/29.7802/2018,2000,g 10.0,4.0
# From MPC114603
P/2018 L4 (PANSTARRS),e,26.5918,145.2243,140.5137,4.948521,0.0895346,0.65821217,216.2924,03/07.0/2025,2000,g 17.5,4.0
# From MPEC 2022-YN2
C/2018 N2 (ASASSN),h,11/12.0817/2019,77.5093,24.5195,25.3180,1.001980,3.134936,2000,6.0,4.0
# From MPC114603
P/2018 P4 (PANSTARRS),e,23.0818,353.1567,8.5169,6.695230,0.0568926,0.44920918,131.5068,03/07.0/2025,2000,g 12.0,4.0
# From MPEC 2021-P47
C/2018 P5 (PANSTARRS),e,7.2463,216.2641,132.0437,12.84762,0.0214028,0.64175536,47.1042,03/07.0/2025,2000,g 11.0,4.0
# From MPC118841
C/2018 R3 (Lemmon),e,69.6909,324.3857,112.7862,1766,0.0000133,0.99927318,0.0000,06/08.0793/2019,2000,g  9.5,4.0
# From MPC114603
C/2018 R5 (Lemmon),e,103.6921,171.2572,178.2749,22.98327,0.0089451,0.84169417,20.1019,03/07.0/2025,2000,g 11.5,4.0
# From MPEC 2022-QC6
C/2018 S2 (TESS),e,64.1100,85.1068,290.9397,14.37053,0.0180923,0.61801659,41.8530,03/07.0/2025,2000,g  7.5,4.0
# From MPEC 2024-JU4
C/2018 U1 (Lemmon),h,11/02.2858/2021,108.3257,75.5162,180.3694,1.000330,4.986893,2000,5.0,4.0
# From MPC114604
C/2018 V1 (Machholz-Fujikawa-Iwamoto),h,12/03.9211/2018,144.1950,129.5695,89.5557,1.000455,0.391188,2000,12.0,4.0
# From MPC115884
C/2018 V2 (ATLAS),e,159.1626,357.2036,319.2701,25.23766,0.0077737,0.90123125,17.8242,03/07.0/2025,2000,g 15.0,4.0
# From MPEC 2025-A40
P/2018 VN2 (Leonard),e,18.2580,226.4397,138.9278,4.061196,0.1204268,0.47820533,296.5688,03/07.0/2025,2000,g 15.0,4.0
# From MPEC 2025-A40
A/2018 V3,e,164.9169,308.8127,3.5856,127.6603,0.0006833,0.98957336,0.0000,09/10.4482/2019,2000,g 15.7,2.0
# From MPEC 2022-M21
C/2018 V4 (Africano),e,69.0450,78.2436,0.0815,214.8833,0.0003129,0.98509737,0.0000,03/02.3776/2019,2000,g 12.5,4.0
# From MPEC 2021-P47
P/2018 V5 (Trujillo-Sheppard),e,10.5791,171.2986,260.8573,8.979368,0.0366299,0.47586779,85.8547,03/07.0/2025,2000,g 12.5,4.0
# From MPEC 2021-P47
C/2018 W1 (Catalina),e,83.4078,233.6434,251.1705,21.73719,0.0097252,0.93779577,20.6592,03/07.0/2025,2000,g 15.5,2.0
# From MPEC 2021-P47
C/2018 W2 (Africano),h,09/05.6294/2019,116.5506,181.9584,158.2301,1.000932,1.465732,2000,9.5,4.0
# From MPEC 2023-M14
A/2018 W3,e,104.8398,251.6909,313.8800,707.0622,0.0000524,0.99394221,0.0000,04/13.1574/2021,2000,g 10.7,2.0
# From MPC119996
C/2018 X2 (Fitzsimmons),e,23.1033,340.6534,161.9898,140.4042,0.0005924,0.98496266,0.0000,07/09.6391/2019,2000,g 12.0,4.0
# From MPC114604
C/2018 X3 (PANSTARRS),e,43.4279,78.7947,359.8527,12.40847,0.0225490,0.78293297,50.8794,03/07.0/2025,2000,g 14.5,4.0
# From MPEC 2024-A43
C/2018 Y1 (Iwamoto),e,160.4758,147.3492,357.8619,126.3085,0.0006943,0.98977156,0.0000,02/03.5751/2019,2000,g 11.5,4.0
# From MPC114605
P/2018 Y2 (Africano),e,11.6946,297.1208,162.3682,7.456442,0.0484068,0.48003730,109.0891,03/07.0/2025,2000,g 11.5,4.0
# From MPC114605
P/2019 A1 (PANSTARRS),e,13.7704,312.2132,150.7762,5.112637,0.0852583,0.57027126,199.1364,03/07.0/2025,2000,g 16.0,4.0
# From MPEC 2021-P47
P/2019 A2 (ATLAS),e,14.8722,139.3715,323.9404,5.710452,0.0722268,0.38326507,165.7678,03/07.0/2025,2000,g 10.5,4.0
# From MPEC 2022-M21
P/2019 A3 (PANSTARRS),e,15.3595,31.3114,325.6982,3.147186,0.1765308,0.26724391,65.1660,03/07.0/2025,2000,g 16.0,4.0
# From MPEC 2022-L66
P/2019 A4 (PANSTARRS),e,13.3056,119.3540,343.2110,2.614534,0.2331378,0.08741335,170.9914,03/07.0/2025,2000,g 15.0,4.0
# From MPEC 2021-P47
C/2019 A5 (PANSTARRS),e,67.5500,146.5226,355.8079,21.49590,0.0098894,0.70637901,20.7693,03/07.0/2025,2000,g  9.5,4.0
# From MPC114605
P/2019 A6 (Lemmon-PANSTARRS),e,33.2972,280.1743,156.2441,5.356729,0.0794977,0.64040644,189.0607,03/07.0/2025,2000,g 16.0,4.0
# From MPEC 2025-EB9
P/2019 A8 (PANSTARRS),e,2.3015,111.5300,46.6801,3.415765,0.1561249,0.37590614,356.1087,03/07.0/2025,2000,g 16.0,4.0
# From MPC118842
C/2019 A9 (PANSTARRS),e,84.3956,278.4688,237.8835,39.28002,0.0040036,0.96366591,8.2074,03/07.0/2025,2000,g 15.0,4.0
# From MPEC 2022-L66
C/2019 B1 (Africano),e,123.4866,290.2392,174.8135,139.2574,0.0005998,0.98849237,0.0000,03/18.2732/2019,2000,g 16.0,4.0
# From MPC115885
P/2019 B2 (Groeller),e,16.9551,175.6719,0.6368,3.926940,0.1266551,0.35776662,268.8718,03/07.0/2025,2000,g 14.5,4.0
# From MPEC 2024-JU4
C/2019 B3 (PANSTARRS),e,66.5941,358.4051,263.9911,3863,0.0000041,0.99823229,0.0000,01/19.6472/2021,2000,g  5.5,4.0
# From MPEC 2021-P47
C/2019 C1 (ATLAS),e,36.0415,212.3760,319.0102,677.6984,0.0000559,0.99030888,0.0000,05/04.3953/2020,2000,g 10.0,4.0
# From MPEC 2022-O08
C/2019 D1 (Flewelling),e,34.0040,231.6573,70.7287,137.2375,0.0006130,0.98839918,0.0000,05/09.0672/2019,2000,g 13.0,4.0
# From MPEC 2025-CE3
C/2019 E3 (ATLAS),e,84.3114,347.2010,280.7165,5161,0.0000027,0.99800168,0.0000,11/15.5706/2023,2000,g  2.5,4.0
# From MPEC 2024-GJ3
C/2019 F1 (ATLAS-Africano),h,06/21.3278/2021,54.2454,38.6637,251.3146,1.000482,3.608681,2000,5.5,4.0
# From MPEC 2025-A40
C/2019 F2 (ATLAS),e,19.3286,175.3552,11.6132,16.55820,0.0146280,0.86471234,29.3642,03/07.0/2025,2000,g 12.0,4.0
# From MPEC 2024-E01
C/2019 G2 (PANSTARRS),e,159.2467,208.2227,82.7532,400.5369,0.0001230,0.99424694,0.0000,12/06.6378/2019,2000,g 15.0,4.0
# From MPEC 2022-VC5
A/2019 G3,e,156.8065,49.9020,161.7508,17.12506,0.0139077,0.83434290,31.7793,03/07.0/2025,2000,g 17.1,2.0
# From MPC114607
P/2019 GG21 (PANSTARRS),e,6.0844,340.5645,208.5870,7.468422,0.0482904,0.47167816,102.7785,03/07.0/2025,2000,g 12.0,4.0
# From MPEC 2022-M21
C/2019 H1 (NEOWISE),e,104.3568,269.3123,19.2530,230.2522,0.0002821,0.99200727,0.0000,04/27.0905/2019,2000,g 15.5,4.0
# From MPEC 2023-A50
C/2019 J1 (Lemmon),e,24.5227,98.2348,167.5891,66.65111,0.0018113,0.96274634,3.9160,03/07.0/2025,2000,g 12.0,4.0
# From MPEC 2021-R75
C/2019 J2 (Palomar),e,105.2241,25.4844,98.5650,160.3854,0.0004852,0.98930698,0.0000,07/21.1006/2019,2000,g 13.0,4.0
# From MPC117071
C/2019 J3 (ATLAS),e,131.2939,270.6554,16.5058,3737860,0.0000000,0.99999937,0.0000,08/02.1121/2019,2000,g 13.5,4.0
# From MPEC 2022-M21
C/2019 JU6 (ATLAS),e,148.3064,21.7051,94.8050,25821,0.0000002,0.99992127,0.0000,06/02.9037/2019,2000,g 14.5,4.0
# From MPEC 2022-O08
C/2019 K1 (ATLAS),e,87.0135,73.3072,265.7743,3182,0.0000055,0.99936504,0.0000,02/11.1550/2020,2000,g 10.0,4.0
# From MPC119997
C/2019 K4 (Ye),e,105.2902,180.2748,140.0151,1617,0.0000152,0.99859261,0.0000,06/15.2577/2019,2000,g 12.5,4.0
# From MPEC 2021-P47
C/2019 K5 (Young),e,15.2965,177.2610,175.1500,168.9675,0.0004487,0.98784442,0.0000,06/21.6203/2019,2000,g 13.0,4.0
# From MPEC 2021-P47
C/2019 K6 (PANSTARRS),e,132.3859,42.9870,187.4462,968.9663,0.0000327,0.99595699,0.0000,05/18.7897/2020,2000,g 11.5,4.0
# From MPEC 2024-GJ3
C/2019 K7 (Smith),h,06/17.2856/2020,103.4830,308.0307,27.3706,1.000510,4.475138,2000,6.0,4.0
# From MPEC 2021-R75
C/2019 K8 (ATLAS),e,93.0540,290.9926,85.3682,1757,0.0000134,0.99818024,0.0000,07/20.4764/2019,2000,g 11.5,4.0
# From MPEC 2023-A50
C/2019 L1 (PANSTARRS),e,9.9734,254.4265,50.0260,9.821299,0.0320222,0.70420108,65.2734,03/07.0/2025,2000,g 13.5,4.0
# From MPC115886
C/2019 L2 (NEOWISE),e,152.1605,12.5764,18.8563,25.14713,0.0078158,0.93549109,16.9163,03/07.0/2025,2000,g 16.0,4.0
# From MPEC 2024-GJ3
P/2019 LD2 (ATLAS),e,11.6018,178.9698,116.7708,5.176084,0.0836955,0.12992223,155.5880,03/07.0/2025,2000,g  8.5,4.0
# From MPEC 2025-A40
C/2019 L3 (ATLAS),h,01/10.0723/2022,48.3453,290.7216,171.7295,1.003028,3.557574,2000,4.5,4.0
# From MPEC 2024-YC7
P/2019 LM4 (Palomar),e,36.4181,72.8944,68.2024,5.702802,0.0723722,0.58602266,151.0680,03/07.0/2025,2000,g  9.5,4.0
# From MPC118095
C/2019 LB7 (Kleyna),e,164.2814,3.9826,336.7590,35.00248,0.0047594,0.92869993,10.3361,03/07.0/2025,2000,g 17.0,4.0
# From MPC118095
C/2019 M3 (ATLAS),e,99.6337,155.0341,87.9355,4832,0.0000029,0.99949814,0.0000,12/31.3272/2018,2000,g 12.2,4.0
# From MPEC 2023-JA2
C/2019 M4 (TESS),h,09/10.0622/2019,65.6853,52.6453,260.3496,1.000785,9.191157,2000,5.0,4.0
# From MPEC 2023-C45
C/2019 N1 (ATLAS),e,82.5082,13.5250,193.3474,990.6894,0.0000316,0.99828074,0.0000,11/30.5870/2020,2000,g  7.5,4.0
# From MPEC 2023-CD8
A/2019 N2,e,89.3231,276.2212,347.0898,1192,0.0000240,0.99837060,0.0000,08/22.4972/2019,2000,g 12.5,2.0
# From MPEC 2022-A21
C/2019 NJ3 (Lemmon),h,10/22.4468/2020,99.3459,142.4913,246.8784,1.001607,4.362917,2000,9.0,4.0
# From MPEC 2024-R10
